0 SCOUT G-1 DEB
1 15951U 85066E   13283.14666769  .00003235  00000-0  32316-2 0  6333
2 15951 089.7693 262.0233 0135029 070.7388 059.1162 13.73733663394132
0 SCOUT G-1 DEB
1 15951U 85066E   13285.89437495  .00002637  00000-0  26305-2 0  6357
2 15951 089.7687 261.9573 0135354 062.6331 327.6018 13.73742525394511
0 SCOUT G-1 DEB
1 15951U 85066E   13286.91400190  .00002685  00000-0  26782-2 0  6366
2 15951 089.7689 261.9324 0135529 059.6311 330.0792 13.73745748394657
0 SCOUT G-1 DEB
1 15951U 85066E   13288.39568744  .00003056  00000-0  30497-2 0  6372
2 15951 089.7690 261.8966 0135584 055.2609 097.6635 13.73754464394852
0 SCOUT G-1 DEB
1 15951U 85066E   13289.41513757  .00002862  00000-0  28546-2 0  6387
2 15951 089.7693 261.8717 0135661 052.2643 099.3087 13.73760311394993
0 SCOUT G-1 DEB
1 15951U 85066E   13290.92492234  .00003192  00000-0  31839-2 0  6398
2 15951 089.7697 261.8349 0135827 047.8432 005.9165 13.73772415395201
0 SCOUT G-1 DEB
1 15951U 85066E   13292.40163295  .00003662  00000-0  36536-2 0  6408
2 15951 089.7701 261.7992 0135938 043.5146 109.0192 13.73782391395400
0 SCOUT G-1 DEB
1 15951U 85066E   13293.41462586  .00004217  00000-0  42083-2 0  6417
2 15951 089.7702 261.7746 0135965 040.5416 078.8300 13.73788451395547
0 SCOUT G-1 DEB
1 15951U 85066E   13295.16228727  .00004144  00000-0  41342-2 0  6425
2 15951 089.7704 261.7323 0135964 035.3474 082.1004 13.73798966395782
0 SCOUT G-1 DEB
1 15951U 85066E   13296.16981631  .00004188  00000-0  41777-2 0  6437
2 15951 089.7700 261.7084 0136062 032.4778 024.8615 13.73804752395925
